{
  "type": "FeatureCollection",
  "features": [
    {
      "type": "Feature",
      "properties": {
        "norad_id": 35052,
        "name": "IRIDIUM 33 DEB",
        "group": "iridium-33-debris",
        "lat": 63.314428931503954,
        "lon": 27.008662442160645,
        "alt_km": 748.0117644268057,
        "timestamp": "2025-12-14T14:39:29.754522+00:00",
        "meta_object_name": "IRIDIUM 33 DEB",
        "meta_object_id": "1997-051NY",
        "meta_epoch": "2025-12-13T20:00:00.868896",
        "meta_mean_motion": 14.38493698,
        "meta_eccentricity": 0.00136505,
        "meta_inclination": 86.331,
        "meta_ra_of_asc_node": 20.0075,
        "meta_arg_of_pericenter": 82.0555,
        "meta_mean_anomaly": 278.2192,
        "meta_ephemeris_type": 0,
        "meta_classification_type": "U",
        "meta_norad_cat_id": 35052,
        "meta_element_set_no": 999,
        "meta_rev_at_epoch": 87291,
        "meta_bstar": 0.00024132483,
        "meta_mean_motion_dot": 7.57e-06,
        "meta_mean_motion_ddot": 0,
        "tle_line1": "1 35052U 97051NY  25347.83334339  .00000757  00000+0  24132-3 0  9997",
        "tle_line2": "2 35052  86.3310  20.0075 0013650  82.0555 278.2192 14.38493698872915"
      },
      "geometry": {
        "type": "Point",
        "coordinates": [
          27.008662442160645,
          63.314428931503954
        ]
      }
    },
    {
      "type": "Feature",
      "properties": {
        "norad_id": 35080,
        "name": "IRIDIUM 33 DEB",
        "group": "iridium-33-debris",
        "lat": -19.997545429724536,
        "lon": -127.13500837029407,
        "alt_km": 577.118713462949,
        "timestamp": "2025-12-14T14:39:29.754532+00:00",
        "meta_object_name": "IRIDIUM 33 DEB",
        "meta_object_id": "1997-051PF",
        "meta_epoch": "2025-12-13T21:36:18.493920",
        "meta_mean_motion": 14.86274724,
        "meta_eccentricity": 0.00599858,
        "meta_inclination": 86.2067,
        "meta_ra_of_asc_node": 51.8212,
        "meta_arg_of_pericenter": 175.8239,
        "meta_mean_anomaly": 184.3499,
        "meta_ephemeris_type": 0,
        "meta_classification_type": "U",
        "meta_norad_cat_id": 35080,
        "meta_element_set_no": 999,
        "meta_rev_at_epoch": 69705,
        "meta_bstar": 0.0068670423,
        "meta_mean_motion_dot": 0.0006289,
        "meta_mean_motion_ddot": 0,
        "tle_line1": "1 35080U 97051PF  25347.90021405  .00062890  00000+0  68670-2 0  9993",
        "tle_line2": "2 35080  86.2067  51.8212 0059985 175.8239 184.3499 14.86274724697057"
      },
      "geometry": {
        "type": "Point",
        "coordinates": [
          -127.13500837029407,
          -19.997545429724536
        ]
      }
    },
    {
      "type": "Feature",
      "properties": {
        "norad_id": 35297,
        "name": "IRIDIUM 33 DEB",
        "group": "iridium-33-debris",
        "lat": 15.109649178011372,
        "lon": 62.93757870557169,
        "alt_km": 748.4225404572726,
        "timestamp": "2025-12-14T14:39:29.754542+00:00",
        "meta_object_name": "IRIDIUM 33 DEB",
        "meta_object_id": "1997-051PM",
        "meta_epoch": "2025-12-12T22:42:20.538720",
        "meta_mean_motion": 14.45159336,
        "meta_eccentricity": 0.00177378,
        "meta_inclination": 86.3854,
        "meta_ra_of_asc_node": 62.6701,
        "meta_arg_of_pericenter": 139.4968,
        "meta_mean_anomaly": 220.7558,
        "meta_ephemeris_type": 0,
        "meta_classification_type": "U",
        "meta_norad_cat_id": 35297,
        "meta_element_set_no": 999,
        "meta_rev_at_epoch": 70429,
        "meta_bstar": 0.0010165954,
        "meta_mean_motion_dot": 3.583e-05,
        "meta_mean_motion_ddot": 0,
        "tle_line1": "1 35297U 97051PM  25346.94607105  .00003583  00000+0  10166-2 0  9994",
        "tle_line2": "2 35297  86.3854  62.6701 0017737 139.4968 220.7558 14.45159336704291"
      },
      "geometry": {
        "type": "Point",
        "coordinates": [
          62.93757870557169,
          15.109649178011372
        ]
      }
    },
    {
      "type": "Feature",
      "properties": {
        "norad_id": 35299,
        "name": "IRIDIUM 33 DEB",
        "group": "iridium-33-debris",
        "lat": -79.97523583033531,
        "lon": 10.830036274210212,
        "alt_km": 805.0770732163492,
        "timestamp": "2025-12-14T14:39:29.754552+00:00",
        "meta_object_name": "IRIDIUM 33 DEB",
        "meta_object_id": "1997-051PP",
        "meta_epoch": "2025-12-13T21:30:05.373792",
        "meta_mean_motion": 14.40869269,
        "meta_eccentricity": 0.00589763,
        "meta_inclination": 86.2887,
        "meta_ra_of_asc_node": 32.6829,
        "meta_arg_of_pericenter": 98.7178,
        "meta_mean_anomaly": 74.9066,
        "meta_ephemeris_type": 0,
        "meta_classification_type": "U",
        "meta_norad_cat_id": 35299,
        "meta_element_set_no": 999,
        "meta_rev_at_epoch": 86347,
        "meta_bstar": 0.00094211768,
        "meta_mean_motion_dot": 3.102e-05,
        "meta_mean_motion_ddot": 0,
        "tle_line1": "1 35299U 97051PP  25347.89589553  .00003102  00000+0  94212-3 0  9999",
        "tle_line2": "2 35299  86.2887  32.6829 0058976  98.7178  74.9066 14.40869269863473"
      },
      "geometry": {
        "type": "Point",
        "coordinates": [
          10.830036274210212,
          -79.97523583033531
        ]
      }
    },
    {
      "type": "Feature",
      "properties": {
        "norad_id": 35480,
        "name": "IRIDIUM 33 DEB",
        "group": "iridium-33-debris",
        "lat": 78.72434512507117,
        "lon": 42.73726775237423,
        "alt_km": 708.3662510808608,
        "timestamp": "2025-12-14T14:39:29.754562+00:00",
        "meta_object_name": "IRIDIUM 33 DEB",
        "meta_object_id": "1997-051QA",
        "meta_epoch": "2025-12-09T19:59:43.135296",
        "meta_mean_motion": 14.49744632,
        "meta_eccentricity": 0.00159269,
        "meta_inclination": 86.357,
        "meta_ra_of_asc_node": 26.1722,
        "meta_arg_of_pericenter": 113.2937,
        "meta_mean_anomaly": 246.9945,
        "meta_ephemeris_type": 0,
        "meta_classification_type": "U",
        "meta_norad_cat_id": 35480,
        "meta_element_set_no": 999,
        "meta_rev_at_epoch": 86989,
        "meta_bstar": 0.0009193458,
        "meta_mean_motion_dot": 3.565e-05,
        "meta_mean_motion_ddot": 0,
        "tle_line1": "1 35480U 97051QA  25343.83313814  .00003565  00000+0  91935-3 0  9998",
        "tle_line2": "2 35480  86.3570  26.1722 0015926 113.2937 246.9945 14.49744632869893"
      },
      "geometry": {
        "type": "Point",
        "coordinates": [
          42.73726775237423,
          78.72434512507117
        ]
      }
    },
    {
      "type": "Feature",
      "properties": {
        "norad_id": 35484,
        "name": "IRIDIUM 33 DEB",
        "group": "iridium-33-debris",
        "lat": -34.06647811899257,
        "lon": 174.33652954715677,
        "alt_km": 578.23572813991,
        "timestamp": "2025-12-14T14:39:29.754572+00:00",
        "meta_object_name": "IRIDIUM 33 DEB",
        "meta_object_id": "1997-051QE",
        "meta_epoch": "2025-12-13T07:15:48.307680",
        "meta_mean_motion": 14.98714194,
        "meta_eccentricity": 0.00237352,
        "meta_inclination": 86.3615,
        "meta_ra_of_asc_node": 352.4822,
        "meta_arg_of_pericenter": 123.3819,
        "meta_mean_anomaly": 236.9688,
        "meta_ephemeris_type": 0,
        "meta_classification_type": "U",
        "meta_norad_cat_id": 35484,
        "meta_element_set_no": 999,
        "meta_rev_at_epoch": 62024,
        "meta_bstar": 0.0048114888,
        "meta_mean_motion_dot": 0.00058609,
        "meta_mean_motion_ddot": 0,
        "tle_line1": "1 35484U 97051QE  25347.30264245  .00058609  00000+0  48115-2 0  9991",
        "tle_line2": "2 35484  86.3615 352.4822 0023735 123.3819 236.9688 14.98714194620242"
      },
      "geometry": {
        "type": "Point",
        "coordinates": [
          174.33652954715677,
          -34.06647811899257
        ]
      }
    },
    {
      "type": "Feature",
      "properties": {
        "norad_id": 35488,
        "name": "IRIDIUM 33 DEB",
        "group": "iridium-33-debris",
        "lat": -37.80198119028566,
        "lon": 122.87422286159486,
        "alt_km": 646.8686342385281,
        "timestamp": "2025-12-14T14:39:29.754582+00:00",
        "meta_object_name": "IRIDIUM 33 DEB",
        "meta_object_id": "1997-051QJ",
        "meta_epoch": "2025-12-12T14:43:12.684864",
        "meta_mean_motion": 14.83053941,
        "meta_eccentricity": 0.00298615,
        "meta_inclination": 86.3248,
        "meta_ra_of_asc_node": 300.9369,
        "meta_arg_of_pericenter": 43.3071,
        "meta_mean_anomaly": 317.049,
        "meta_ephemeris_type": 0,
        "meta_classification_type": "U",
        "meta_norad_cat_id": 35488,
        "meta_element_set_no": 999,
        "meta_rev_at_epoch": 88264,
        "meta_bstar": 0.0023232859,
        "meta_mean_motion_dot": 0.00019104,
        "meta_mean_motion_ddot": 0,
        "tle_line1": "1 35488U 97051QJ  25346.61334126  .00019104  00000+0  23233-2 0  9995",
        "tle_line2": "2 35488  86.3248 300.9369 0029861  43.3071 317.0490 14.83053941882645"
      },
      "geometry": {
        "type": "Point",
        "coordinates": [
          122.87422286159486,
          -37.80198119028566
        ]
      }
    }
  ]
}